[{"OBJECT_NAME":"OBJECT B","OBJECT_ID":"2024-153B","EPOCH":"2026-03-09T23:15:18.632160","MEAN_MOTION":15.30512917,"ECCENTRICITY":0.00113423,"INCLINATION":97.6622,"RA_OF_ASC_NODE":204.9195,"ARG_OF_PERICENTER":149.8438,"MEAN_ANOMALY":210.3457,"EPHEMERIS_TYPE":0,"CLASSIFICATION_TYPE":"U","NORAD_CAT_ID":60746,"ELEMENT_SET_NO":999,"REV_AT_EPOCH":8476,"BSTAR":0.00066193599,"MEAN_MOTION_DOT":0.00019515,"MEAN_MOTION_DDOT":0},{"OBJECT_NAME":"STARLINK-34181","OBJECT_ID":"2025-111X","EPOCH":"2026-03-09T10:20:04.255584","MEAN_MOTION":15.27619505,"ECCENTRICITY":0.00015869,"INCLINATION":42.998,"RA_OF_ASC_NODE":79.3386,"ARG_OF_PERICENTER":254.8289,"MEAN_ANOMALY":105.2387,"EPHEMERIS_TYPE":0,"CLASSIFICATION_TYPE":"U","NORAD_CAT_ID":64144,"ELEMENT_SET_NO":999,"REV_AT_EPOCH":4542,"BSTAR":0.0011024311,"MEAN_MOTION_DOT":0.00030236,"MEAN_MOTION_DDOT":0}]
